[{"id":"43010","name":"FENGYUN 3D","tle1":"1 43010U 17072A   26176.25195569  .00000315  00000+0  17052-3 0  9995","tle2":"2 43010  99.0128 150.8198 0002385  49.4928 310.6455 14.19742028446135"},{"id":"43013","name":"NOAA 20 (JPSS-1)","tle1":"1 43013U 17073A   26176.24823677  .00000034  00000+0  37318-4 0  9992","tle2":"2 43013  98.7772 115.6392 0000559 131.5924 228.5300 14.19513139445611"},{"id":"43226","name":"GOES 17","tle1":"1 43226U 18022A   26176.29337617 -.00000173  00000+0  00000+0 0  9990","tle2":"2 43226   0.9576  85.5741 0000638  22.4700 181.4896  1.00272936 30503"},{"id":"43437","name":"SENTINEL-3B","tle1":"1 43437U 18039A   26176.18451976  .00000095  00000+0  57471-4 0  9996","tle2":"2 43437  98.6245 243.6020 0000735 104.6006 255.5256 14.26736833425268"},{"id":"43491","name":"FENGYUN 2H","tle1":"1 43491U 18050A   26175.97036458 -.00000122  00000+0  00000+0 0  9992","tle2":"2 43491   3.0521  78.9902 0001670 126.5778 136.2280  1.00269674 29513"},{"id":"43689","name":"METOP-C","tle1":"1 43689U 18087A   26176.23298019  .00000079  00000+0  55995-4 0  9992","tle2":"2 43689  98.6641 235.6894 0002010 119.2975 240.8404 14.21514070395970"},{"id":"43823","name":"GEO-KOMPSAT-2A","tle1":"1 43823U 18100A   26176.26520472 -.00000334  00000+0  00000+0 0  9999","tle2":"2 43823   0.0441 163.0128 0002449 287.3914  46.7318  1.00270777 27712"},{"id":"44387","name":"METEOR-M2 2","tle1":"1 44387U 19038A   26176.25272899  .00000059  00000+0  45239-4 0  9993","tle2":"2 44387  98.9147 163.6571 0001762  36.9153 323.2146 14.24367750362447"},{"id":"47719","name":"ARKTIKA-M 1","tle1":"1 47719U 21016A   26175.46896265 -.00000298  00000+0  00000+0 0  9993","tle2":"2 47719  63.2470  56.5720 7291000 269.9787  14.5750  2.00620016 38936"},{"id":"49008","name":"FENGYUN 3E","tle1":"1 49008U 21062A   26176.30539260 -.00000185  00000+0 -66562-4 0  9996","tle2":"2 49008  98.7497 179.6229 0002821  72.3849 287.7635 14.19904048257731"},{"id":"51850","name":"GOES 18","tle1":"1 51850U 22021A   26176.26503977  .00000106  00000+0  00000+0 0  9992","tle2":"2 51850   0.0211 173.6605 0000639 309.9017 108.2471  1.00272680  6678"},{"id":"54234","name":"NOAA 21 (JPSS-2)","tle1":"1 54234U 22150A   26176.28085622  .00000040  00000+0  39854-4 0  9999","tle2":"2 54234  98.7062 114.9343 0002175 141.5859 218.5473 14.19537907187692"},{"id":"54743","name":"METEOSAT-12 (MTG-I1)","tle1":"1 54743U 22170C   26176.23516927  .00000002  00000+0  00000+0 0  9992","tle2":"2 54743   0.7474  24.2867 0003592  71.3838 262.0180  1.00275041 13053"},{"id":"55973","name":"TIANMU-1 03","tle1":"1 55973U 23039A   26176.26294087  .00017402  00000+0  34031-3 0  9993","tle2":"2 55973  97.5234 350.5496 0004000  79.8279 280.3421 15.47496115182081"},{"id":"55974","name":"TIANMU-1 04","tle1":"1 55974U 23039B   26176.31392429  .00018391  00000+0  35202-3 0  9998","tle2":"2 55974  97.5171 349.7567 0004489  73.3820 286.7923 15.48104090182102"},{"id":"55975","name":"TIANMU-1 05","tle1":"1 55975U 23039C   26176.30876586  .00017853  00000+0  34996-3 0  9990","tle2":"2 55975  97.5214 350.2092 0004025  94.9588 265.2121 15.47422317182079"},{"id":"55976","name":"TIANMU-1 06","tle1":"1 55976U 23039D   26176.31781157  .00018362  00000+0  35267-3 0  9999","tle2":"2 55976  97.5224 350.8623 0004181  89.9836 270.1893 15.48006267182108"},{"id":"56232","name":"FENGYUN 3G","tle1":"1 56232U 23055A   26176.27909212  .00026961  00000+0  42981-3 0  9997","tle2":"2 56232  49.9935 304.3173 0007211 330.1964  29.8591 15.52964101181263"},{"id":"57166","name":"METEOR-M2 3","tle1":"1 57166U 23091A   26176.31915875 -.00000010  00000+0  14586-4 0  9990","tle2":"2 57166  98.6079 231.1311 0004749 135.4529 224.7033 14.24047374155672"},{"id":"57399","name":"TIANMU-1 07","tle1":"1 57399U 23101A   26176.34158464  .00007673  00000+0  26757-3 0  9999","tle2":"2 57399  97.2594 226.8226 0004336 104.7675 255.4047 15.29894257162890"},{"id":"57400","name":"TIANMU-1 08","tle1":"1 57400U 23101B   26176.30820374  .00007089  00000+0  24733-3 0  9997","tle2":"2 57400  97.2583 226.5593 0005714  95.8217 264.3676 15.29897964162882"},{"id":"57401","name":"TIANMU-1 09","tle1":"1 57401U 23101C   26176.29144932  .00007608  00000+0  26500-3 0  9996","tle2":"2 57401  97.2541 225.9546 0004898 108.6711 251.5062 15.29931004162883"},{"id":"57402","name":"TIANMU-1 10","tle1":"1 57402U 23101D   26176.25924172  .00007159  00000+0  24968-3 0  9992","tle2":"2 57402  97.2621 226.9819 0006428 105.6434 254.5516 15.29902678162878"},{"id":"57490","name":"FENGYUN 3F","tle1":"1 57490U 23111A   26176.28911894  .00000033  00000+0  35751-4 0  9997","tle2":"2 57490  98.6834 246.1469 0001560  87.2020 272.9335 14.19940300150017"},{"id":"58584","name":"ARKTIKA-M 2","tle1":"1 58584U 23198A   26174.74078844  .00000167  00000+0  00000+0 0  9997","tle2":"2 58584  63.2421 153.6337 6904949 267.3888  18.7567  2.00611379 18452"},{"id":"58645","name":"TIANMU-1 11","tle1":"1 58645U 23205A   26176.31012100  .00006182  00000+0  23532-3 0  9994","tle2":"2 58645  97.3447 197.7393 0007961 348.0388  12.0661 15.27071619138760"},{"id":"58646","name":"TIANMU-1 12","tle1":"1 58646U 23205B   26176.28067212  .00006593  00000+0  25113-3 0  9998","tle2":"2 58646  97.3436 197.4645 0005757 332.5371  27.5563 15.27038165138746"},{"id":"58647","name":"TIANMU-1 13","tle1":"1 58647U 23205C   26176.31363200  .00006295  00000+0  24100-3 0  9993","tle2":"2 58647  97.3464 197.7707 0005147 306.0442  54.0319 15.26890982138744"},{"id":"58648","name":"TIANMU-1 14","tle1":"1 58648U 23205D   26176.29860062  .00006138  00000+0  23473-3 0  9997","tle2":"2 58648  97.3400 196.9313 0006044 311.6750  48.3971 15.26935203138746"},{"id":"58660","name":"TIANMU-1 19","tle1":"1 58660U 23208A   26176.25749711  .00009138  00000+0  30117-3 0  9993","tle2":"2 58660  97.4505 292.5990 0003442 289.4019  70.6850 15.31683565138561"}]