OBJECT_NAME,OBJECT_ID,EPOCH,MEAN_MOTION,ECCENTRICITY,INCLINATION,RA_OF_ASC_NODE,ARG_OF_PERICENTER,MEAN_ANOMALY,EPHEMERIS_TYPE,CLASSIFICATION_TYPE,NORAD_CAT_ID,ELEMENT_SET_NO,REV_AT_EPOCH,BSTAR,MEAN_MOTION_DOT,MEAN_MOTION_DDOT
FENGYUN 3D,2017-072A,2026-06-25T06:02:48.971616,14.19742028,.00023856,99.0128,150.8198,49.4928,310.6455,0,U,43010,999,44613,.17051614E-3,.315E-5,0
NOAA 20 (JPSS-1),2017-073A,2026-06-25T05:57:27.656928,14.19513139,.00005593,98.7772,115.6392,131.5924,228.5300,0,U,43013,999,44561,.37318475E-4,.34E-6,0
GOES 17,2018-022A,2026-06-25T07:02:27.701088,1.00272936,.00006389,0.9576,85.5741,22.4700,181.4896,0,U,43226,999,3050,0,-.173E-5,0
SENTINEL-3B,2018-039A,2026-06-25T04:25:42.507264,14.26736833,.00007355,98.6245,243.6020,104.6006,255.5256,0,U,43437,999,42526,.5747101E-4,.95E-6,0
FENGYUN 2H,2018-050A,2026-06-24T23:17:19.499712,1.00269674,.000167,3.0521,78.9902,126.5778,136.2280,0,U,43491,999,2951,0,-.122E-5,0
METOP-C,2018-087A,2026-06-25T05:35:29.488416,14.21514070,.00020104,98.6641,235.6894,119.2975,240.8404,0,U,43689,999,39597,.55995358E-4,.79E-6,0
GEO-KOMPSAT-2A,2018-100A,2026-06-25T06:21:53.687808,1.00270777,.00024497,0.0441,163.0128,287.3914,46.7318,0,U,43823,999,2771,0,-.334E-5,0
METEOR-M2 2,2019-038A,2026-06-25T06:03:55.784736,14.24367750,.00017625,98.9147,163.6571,36.9153,323.2146,0,U,44387,999,36244,.45238864E-4,.59E-6,0
ARKTIKA-M 1,2021-016A,2026-06-24T11:15:18.372960,2.00620016,.7291,63.2470,56.5720,269.9787,14.5750,0,U,47719,999,3893,0,-.298E-5,0
FENGYUN 3E,2021-062A,2026-06-25T07:19:45.920640,14.19904048,.00028213,98.7497,179.6229,72.3849,287.7635,0,U,49008,999,25773,-.66562278E-4,-.185E-5,0
GOES 18,2022-021A,2026-06-25T06:21:39.436128,1.00272680,.00006399,0.0211,173.6605,309.9017,108.2471,0,U,51850,999,667,0,.106E-5,0
NOAA 21 (JPSS-2),2022-150A,2026-06-25T06:44:25.977408,14.19537907,.00021758,98.7062,114.9343,141.5859,218.5473,0,U,54234,999,18769,.39853827E-4,.4E-6,0
METEOSAT-12 (MTG-I1),2022-170C,2026-06-25T05:38:38.624928,1.00275041,.00035926,0.7474,24.2867,71.3838,262.0180,0,U,54743,999,1305,0,.2E-7,0
TIANMU-1 03,2023-039A,2026-06-25T06:18:38.091168,15.47496115,.00040003,97.5234,350.5496,79.8279,280.3421,0,U,55973,999,18208,.34031191E-3,.17402E-3,0
TIANMU-1 04,2023-039B,2026-06-25T07:32:03.058656,15.48104090,.00044893,97.5171,349.7567,73.3820,286.7923,0,U,55974,999,18210,.35201501E-3,.18391E-3,0
TIANMU-1 05,2023-039C,2026-06-25T07:24:37.370304,15.47422317,.00040256,97.5214,350.2092,94.9588,265.2121,0,U,55975,999,18207,.34995931E-3,.17853E-3,0
TIANMU-1 06,2023-039D,2026-06-25T07:37:38.919648,15.48006267,.00041816,97.5224,350.8623,89.9836,270.1893,0,U,55976,999,18210,.35267113E-3,.18362E-3,0
FENGYUN 3G,2023-055A,2026-06-25T06:41:53.559168,15.52964101,.00072111,49.9935,304.3173,330.1964,29.8591,0,U,56232,999,18126,.42981263E-3,.26961E-3,0
METEOR-M2 3,2023-091A,2026-06-25T07:39:35.316000,14.24047374,.00047493,98.6079,231.1311,135.4529,224.7033,0,U,57166,999,15567,.14586266E-4,-.1E-6,0
TIANMU-1 07,2023-101A,2026-06-25T08:11:52.912896,15.29894257,.00043366,97.2594,226.8226,104.7675,255.4047,0,U,57399,999,16289,.26757147E-3,.7673E-4,0
TIANMU-1 08,2023-101B,2026-06-25T07:23:48.803136,15.29897964,.00057147,97.2583,226.5593,95.8217,264.3676,0,U,57400,999,16288,.24732699E-3,.7089E-4,0
TIANMU-1 09,2023-101C,2026-06-25T06:59:41.221248,15.29931004,.00048984,97.2541,225.9546,108.6711,251.5062,0,U,57401,999,16288,.26500217E-3,.7608E-4,0
TIANMU-1 10,2023-101D,2026-06-25T06:13:18.484608,15.29902678,.00064286,97.2621,226.9819,105.6434,254.5516,0,U,57402,999,16287,.24967949E-3,.7159E-4,0
FENGYUN 3F,2023-111A,2026-06-25T06:56:19.876416,14.19940300,.00015605,98.6834,246.1469,87.2020,272.9335,0,U,57490,999,15001,.35750536E-4,.33E-6,0
ARKTIKA-M 2,2023-198A,2026-06-23T17:46:44.121216,2.00611379,.69049491,63.2421,153.6337,267.3888,18.7567,0,U,58584,999,1845,0,.167E-5,0
TIANMU-1 11,2023-205A,2026-06-25T07:26:34.454400,15.27071619,.00079616,97.3447,197.7393,348.0388,12.0661,0,U,58645,999,13876,.23532153E-3,.6182E-4,0
TIANMU-1 12,2023-205B,2026-06-25T06:44:10.071168,15.27038165,.0005757,97.3436,197.4645,332.5371,27.5563,0,U,58646,999,13874,.25113485E-3,.6593E-4,0
TIANMU-1 13,2023-205C,2026-06-25T07:31:37.804800,15.26890982,.00051477,97.3464,197.7707,306.0442,54.0319,0,U,58647,999,13874,.24100275E-3,.6295E-4,0
TIANMU-1 14,2023-205D,2026-06-25T07:09:59.093568,15.26935203,.00060445,97.3400,196.9313,311.6750,48.3971,0,U,58648,999,13874,.2347314E-3,.6138E-4,0
TIANMU-1 19,2023-208A,2026-06-25T06:10:47.750304,15.31683565,.00034422,97.4505,292.5990,289.4019,70.6850,0,U,58660,999,13856,.30116832E-3,.9138E-4,0
